ORBCOMM FM115           
1 41186U 15081H   24335.82055479  .00002809  00000+0  59247-3 0  9990
2 41186  46.9981 262.4979 0000862 243.1809 116.8990 14.61735184478745
ORBCOMM FM108           
1 41187U 15081J   24335.49251567  .00003157  00000+0  72421-3 0  9996
2 41187  47.0048 324.8941 0001570  97.0654 263.0410 14.57510551477807
ORBCOMM FM117           
1 41188U 15081K   24335.66489460  .00003105  00000+0  71298-3 0  9995
2 41188  47.0011 322.9149 0001844 122.3187 237.7877 14.57513598477926
ORBCOMM FM116           
1 41189U 15081L   24335.51728278  .00003879  00000+0  88185-3 0  9994
2 41189  47.0022  53.4481 0002895 234.5116 125.5499 14.57493664476664
